{"type": "FeatureCollection", "features": [ {"type": "Feature", "properties": {"norad_id": 31456, "name": "FENGYUN 1C DEB", "group": "fengyun-1c-debris", "lat": 5.067441012265273, "lon": 96.23284011516536, "alt_km": 739.7209889414653, "timestamp": "2025-12-20T14:38:02.252272+00:00", "meta": {"OBJECT_NAME": "FENGYUN 1C DEB", "OBJECT_ID": "1999-025BUU", "EPOCH": "2025-12-17T13:21:30.732480", "MEAN_MOTION": 14.42423971, "ECCENTRICITY": 0.00676593, "INCLINATION": 98.5778, "RA_OF_ASC_NODE": 93.9301, "ARG_OF_PERICENTER": 299.6577, "MEAN_ANOMALY": 59.7886, "EPHEMERIS_TYPE": 0, "CLASSIFICATION_TYPE": "U", "NORAD_CAT_ID": 31456, "ELEMENT_SET_NO": 999, "REV_AT_EPOCH": 97536, "BSTAR": 0.0006424571, "MEAN_MOTION_DOT": 2.138e-05, "MEAN_MOTION_DDOT": 0}, "tle": {"line1": "1 31456U 99025BUU 25351.55660570  .00002138  00000+0  64246-3 0  9992", "line2": "2 31456  98.5778  93.9301 0067659 299.6577  59.7886 14.42423971975368"}}, "geometry": {"type": "Point", "coordinates": [96.23284011516536, 5.067441012265273]}}, {"type": "Feature", "properties": {"norad_id": 31459, "name": "FENGYUN 1C DEB", "group": "fengyun-1c-debris", "lat": -5.525543611163262, "lon": -96.63218511284117, "alt_km": 774.1708976442596, "timestamp": "2025-12-20T14:38:02.252282+00:00", "meta": {"OBJECT_NAME": "FENGYUN 1C DEB", "OBJECT_ID": "1999-025BUX", "EPOCH": "2025-12-12T23:44:38.705568", "MEAN_MOTION": 14.44083824, "ECCENTRICITY": 0.00940456, "INCLINATION": 98.1765, "RA_OF_ASC_NODE": 255.2445, "ARG_OF_PERICENTER": 130.906, "MEAN_ANOMALY": 230.0325, "EPHEMERIS_TYPE": 0, "CLASSIFICATION_TYPE": "U", "NORAD_CAT_ID": 31459, "ELEMENT_SET_NO": 999, "REV_AT_EPOCH": 64561, "BSTAR": 0.0020176648, "MEAN_MOTION_DOT": 7.253e-05, "MEAN_MOTION_DDOT": 0}, "tle": {"line1": "1 31459U 99025BUX 25346.98933687  .00007253  00000+0  20177-2 0  9995", "line2": "2 31459  98.1765 255.2445 0094045 130.9060 230.0325 14.44083824645613"}}, "geometry": {"type": "Point", "coordinates": [-96.63218511284117, -5.525543611163262]}}, {"type": "Feature", "properties": {"norad_id": 31462, "name": "FENGYUN 1C DEB", "group": "fengyun-1c-debris", "lat": 15.594578228729143, "lon": 10.33389153046602, "alt_km": 872.3548292779324, "timestamp": "2025-12-20T14:38:02.252292+00:00", "meta": {"OBJECT_NAME": "FENGYUN 1C DEB", "OBJECT_ID": "1999-025BVA", "EPOCH": "2025-12-17T00:11:35.659104", "MEAN_MOTION": 14.13016034, "ECCENTRICITY": 0.00322795, "INCLINATION": 98.6896, "RA_OF_ASC_NODE": 9.2845, "ARG_OF_PERICENTER": 192.0461, "MEAN_ANOMALY": 232.8507, "EPHEMERIS_TYPE": 0, "CLASSIFICATION_TYPE": "U", "NORAD_CAT_ID": 31462, "ELEMENT_SET_NO": 999, "REV_AT_EPOCH": 95916, "BSTAR": 0.00031044723, "MEAN_MOTION_DOT": 5.39e-06, "MEAN_MOTION_DDOT": 0}, "tle": {"line1": "1 31462U 99025BVA 25351.00805161  .00000539  00000+0  31045-3 0  9990", "line2": "2 31462  98.6896   9.2845 0032279 192.0461 232.8507 14.13016034959168"}}, "geometry": {"type": "Point", "coordinates": [10.33389153046602, 15.594578228729143]}}, {"type": "Feature", "properties": {"norad_id": 31463, "name": "FENGYUN 1C DEB", "group": "fengyun-1c-debris", "lat": -62.02362254805218, "lon": -5.745451869984376, "alt_km": 746.4629561013153, "timestamp": "2025-12-20T14:38:02.252302+00:00", "meta": {"OBJECT_NAME": "FENGYUN 1C DEB", "OBJECT_ID": "1999-025BVB", "EPOCH": "2025-12-17T05:02:14.245440", "MEAN_MOTION": 14.36964853, "ECCENTRICITY": 0.02135653, "INCLINATION": 99.0801, "RA_OF_ASC_NODE": 333.1449, "ARG_OF_PERICENTER": 26.7734, "MEAN_ANOMALY": 334.4288, "EPHEMERIS_TYPE": 0, "CLASSIFICATION_TYPE": "U", "NORAD_CAT_ID": 31463, "ELEMENT_SET_NO": 999, "REV_AT_EPOCH": 64784, "BSTAR": 0.00042071423, "MEAN_MOTION_DOT": 1.563e-05, "MEAN_MOTION_DDOT": 0}, "tle": {"line1": "1 31463U 99025BVB 25351.20988710  .00001563  00000+0  42071-3 0  9994", "line2": "2 31463  99.0801 333.1449 0213565  26.7734 334.4288 14.36964853647844"}}, "geometry": {"type": "Point", "coordinates": [-5.745451869984376, -62.02362254805218]}}, {"type": "Feature", "properties": {"norad_id": 31464, "name": "FENGYUN 1C DEB", "group": "fengyun-1c-debris", "lat": -54.143741198454066, "lon": 53.61579934737639, "alt_km": 855.1757266035493, "timestamp": "2025-12-20T14:38:02.252312+00:00", "meta": {"OBJECT_NAME": "FENGYUN 1C DEB", "OBJECT_ID": "1999-025BVC", "EPOCH": "2025-12-19T22:29:16.076832", "MEAN_MOTION": 14.12484181, "ECCENTRICITY": 0.0043445, "INCLINATION": 98.7938, "RA_OF_ASC_NODE": 40.5879, "ARG_OF_PERICENTER": 221.5189, "MEAN_ANOMALY": 263.9379, "EPHEMERIS_TYPE": 0, "CLASSIFICATION_TYPE": "U", "NORAD_CAT_ID": 31464, "ELEMENT_SET_NO": 999, "REV_AT_EPOCH": 94781, "BSTAR": 0.00024711, "MEAN_MOTION_DOT": 4.17e-06, "MEAN_MOTION_DDOT": 0}, "tle": {"line1": "1 31464U 99025BVC 25353.93699163  .00000417  00000+0  24711-3 0  9996", "line2": "2 31464  98.7938  40.5879 0043445 221.5189 263.9379 14.12484181947817"}}, "geometry": {"type": "Point", "coordinates": [53.61579934737639, -54.143741198454066]}}, {"type": "Feature", "properties": {"norad_id": 31466, "name": "FENGYUN 1C DEB", "group": "fengyun-1c-debris", "lat": 11.828093165757114, "lon": -77.15512835699896, "alt_km": 808.8352781825333, "timestamp": "2025-12-20T14:38:02.252321+00:00", "meta": {"OBJECT_NAME": "FENGYUN 1C DEB", "OBJECT_ID": "1999-025BVE", "EPOCH": "2025-12-16T02:14:17.384928", "MEAN_MOTION": 14.1852535, "ECCENTRICITY": 0.02990788, "INCLINATION": 99.0889, "RA_OF_ASC_NODE": 280.1326, "ARG_OF_PERICENTER": 299.2838, "MEAN_ANOMALY": 57.8749, "EPHEMERIS_TYPE": 0, "CLASSIFICATION_TYPE": "U", "NORAD_CAT_ID": 31466, "ELEMENT_SET_NO": 999, "REV_AT_EPOCH": 96376, "BSTAR": 0.00020920335, "MEAN_MOTION_DOT": 6.16e-06, "MEAN_MOTION_DDOT": 0}, "tle": {"line1": "1 31466U 99025BVE 25350.09325677  .00000616  00000+0  20920-3 0  9997", "line2": "2 31466  99.0889 280.1326 0299078 299.2838  57.8749 14.18525350963768"}}, "geometry": {"type": "Point", "coordinates": [-77.15512835699896, 11.828093165757114]}}, {"type": "Feature", "properties": {"norad_id": 31468, "name": "FENGYUN 1C DEB", "group": "fengyun-1c-debris", "lat": 15.419366650477553, "lon": 172.70607908716838, "alt_km": 627.0110623907312, "timestamp": "2025-12-20T14:38:02.252331+00:00", "meta": {"OBJECT_NAME": "FENGYUN 1C DEB", "OBJECT_ID": "1999-025BVG", "EPOCH": "2025-12-15T17:40:52.277088", "MEAN_MOTION": 14.46598121, "ECCENTRICITY": 0.01665536, "INCLINATION": 98.1678, "RA_OF_ASC_NODE": 345.7354, "ARG_OF_PERICENTER": 157.6429, "MEAN_ANOMALY": 203.2135, "EPHEMERIS_TYPE": 0, "CLASSIFICATION_TYPE": "U", "NORAD_CAT_ID": 31468, "ELEMENT_SET_NO": 999, "REV_AT_EPOCH": 67415, "BSTAR": 0.00027310227, "MEAN_MOTION_DOT": 1.122e-05, "MEAN_MOTION_DDOT": 0}, "tle": {"line1": "1 31468U 99025BVG 25349.73671617  .00001122  00000+0  27310-3 0  9999", "line2": "2 31468  98.1678 345.7354 0166553 157.6429 203.2135 14.46598121674154"}}, "geometry": {"type": "Point", "coordinates": [172.70607908716838, 15.419366650477553]}}, {"type": "Feature", "properties": {"norad_id": 31473, "name": "FENGYUN 1C DEB", "group": "fengyun-1c-debris", "lat": -17.311796655936654, "lon": -155.16019191278772, "alt_km": 838.7972315579873, "timestamp": "2025-12-20T14:38:02.252341+00:00", "meta": {"OBJECT_NAME": "FENGYUN 1C DEB", "OBJECT_ID": "1999-025BVM", "EPOCH": "2025-12-19T07:45:43.627968", "MEAN_MOTION": 14.29830542, "ECCENTRICITY": 0.0064578, "INCLINATION": 98.5452, "RA_OF_ASC_NODE": 26.2636, "ARG_OF_PERICENTER": 355.3694, "MEAN_ANOMALY": 64.8933, "EPHEMERIS_TYPE": 0, "CLASSIFICATION_TYPE": "U", "NORAD_CAT_ID": 31473, "ELEMENT_SET_NO": 999, "REV_AT_EPOCH": 69615, "BSTAR": 0.0010461, "MEAN_MOTION_DOT": 2.708e-05, "MEAN_MOTION_DDOT": 0}, "tle": {"line1": "1 31473U 99025BVM 25353.32342162  .00002708  00000+0  10461-2 0  9994", "line2": "2 31473  98.5452  26.2636 0064578 355.3694  64.8933 14.29830542696151"}}, "geometry": {"type": "Point", "coordinates": [-155.16019191278772, -17.311796655936654]}}, {"type": "Feature", "properties": {"norad_id": 31474, "name": "FENGYUN 1C DEB", "group": "fengyun-1c-debris", "lat": -58.986317947607084, "lon": 56.14481768154823, "alt_km": 886.2212638872088, "timestamp": "2025-12-20T14:38:02.252352+00:00", "meta": {"OBJECT_NAME": "FENGYUN 1C DEB", "OBJECT_ID": "1999-025BVN", "EPOCH": "2025-12-17T20:31:53.420160", "MEAN_MOTION": 14.10616871, "ECCENTRICITY": 0.00720818, "INCLINATION": 99.1448, "RA_OF_ASC_NODE": 37.8022, "ARG_OF_PERICENTER": 192.292, "MEAN_ANOMALY": 167.6494, "EPHEMERIS_TYPE": 0, "CLASSIFICATION_TYPE": "U", "NORAD_CAT_ID": 31474, "ELEMENT_SET_NO": 999, "REV_AT_EPOCH": 95042, "BSTAR": 0.0012018353, "MEAN_MOTION_DOT": 2.151e-05, "MEAN_MOTION_DDOT": 0}, "tle": {"line1": "1 31474U 99025BVN 25351.85547940  .00002151  00000+0  12018-2 0  9994", "line2": "2 31474  99.1448  37.8022 0072081 192.2920 167.6494 14.10616871950423"}}, "geometry": {"type": "Point", "coordinates": [56.14481768154823, -58.986317947607084]}}, {"type": "Feature", "properties": {"norad_id": 31475, "name": "FENGYUN 1C DEB", "group": "fengyun-1c-debris", "lat": -45.944553151733516, "lon": -107.00757721854634, "alt_km": 867.5756896039265, "timestamp": "2025-12-20T14:38:02.252362+00:00", "meta": {"OBJECT_NAME": "FENGYUN 1C DEB", "OBJECT_ID": "1999-025BVP", "EPOCH": "2025-12-19T10:28:07.826880", "MEAN_MOTION": 14.38229, "ECCENTRICITY": 0.0211787, "INCLINATION": 98.9397, "RA_OF_ASC_NODE": 242.4077, "ARG_OF_PERICENTER": 87.4314, "MEAN_ANOMALY": 275.1095, "EPHEMERIS_TYPE": 0, "CLASSIFICATION_TYPE": "U", "NORAD_CAT_ID": 31475, "ELEMENT_SET_NO": 999, "REV_AT_EPOCH": 96175, "BSTAR": 0.000435, "MEAN_MOTION_DOT": 1.661e-05, "MEAN_MOTION_DDOT": 0}, "tle": {"line1": "1 31475U 99025BVP 25353.43620170  .00001661  00000+0  43500-3 0  9994", "line2": "2 31475  98.9397 242.4077 0211787  87.4314 275.1095 14.38229000961752"}}, "geometry": {"type": "Point", "coordinates": [-107.00757721854634, -45.944553151733516]}}]}